{"type":"FeatureCollection","features":[{"type":"Feature","properties":{},"geometry":{"coordinates":[[-63.24991309128117,45.1111678957279],[-63.49558602337794,45.06650994475331],[-63.7565861405203,45.363347342670636],[-64.23851155466679,45.34886240057875],[-64.17170177969199,45.67144836615765],[-63.752894210085884,45.789826894855054],[-63.50232312208276,45.8208663671349],[-63.24568725171906,45.81818994909332],[-62.9613783928275,45.64440701977318],[-62.86402044782942,45.40250762342197],[-62.96851173706024,45.16972283783397],[-63.25178313135777,45.11358012282045]],"type":"LineString"}}]}